[{"name":"1 Hundred Bistro","address":"1001 Fairview Ave","city":"Seattle","state":"WA","zip":"98109","telephone":"(206) 402-6364","promotions":["20% off total guest check(2 - 6 adults)","10% savings on banquets booked","18% gratuity automatically added"]},{"name":"125th Street Grill","address":"12255 Aurora Ave N","city":"Seattle","state":"WA","zip":"98153","telephone":"(206) 363-8950","promotions":["Receive the second adult entrée of equal or lesser value in the party (party meaning 2 or more people) complimentary.","18% gratuity automatically added"]},{"name":"13 Coins Restaurant","address":"125 Boren Ave. N","city":"Seattle","state":"WA","zip":"98019","telephone":"(206) 682-2513","promotions":["Receive the second adult entrée of equal or lesser value in the party (party meaning 2 or more people) complimentary.","10% savings on banquets booked","This location only."]},{"name":"4th Street Grill & Lounge","address":"4004 NE 4th St.","city":"Renton","state":"WA","zip":"98056","telephone":"(425) 255-3595","promotions":["20% off total guest check(2 - 6 adults)","20% off total bill when dining alone","10% savings on banquets booked"]},{"name":"aa Sushi","address":"9730 NE 119th Way","city":"Kirkland","state":"WA","zip":"98034","telephone":"(425) 821-7989","promotions":["20% off total guest check(2 - 6 adults)"]},{"name":"Al Boccalino","address":"1 Yesler Way","city":"Seattle","state":"WA","zip":"98104","telephone":"(206) 622-7688","promotions":["Receive the second adult entrée of equal or lesser value in the party (party meaning 2 or more people) complimentary.","18% gratuity automatically added"]},{"name":"Al Lago Restaurant","address":"3110 Sumner Tapps Hwy E","city":"Lake Tapps","state":"WA","zip":"98391","telephone":"(253) 863-8636","promotions":["Receive the second adult entrée of equal or lesser value in the party (party meaning 2 or more people) complimentary.","18% gratuity automatically added"]},{"name":"Alexas Caf & Catering","address":"10115 Main St.","city":"Bothell","state":"WA","zip":"98011","telephone":"(425) 402-1754","promotions":["Receive the second adult entrée of equal or lesser value in the party (party meaning 2 or more people) complimentary."]},{"name":"Amante Pizza & Pasta","address":"1525 E Olive Way","city":"Seattle","state":"WA","zip":"98122","telephone":"(206) 861-1777","promotions":["Receive the second adult entrée of equal or lesser value in the party (party meaning 2 or more people) complimentary.","20% off pizza if less than 2 non-pizza entrÃ©es are ordered","20% off total bill when dining alone"]},{"name":"Amante Pizza & Pasta","address":"131 Front St. N","city":"Issaquah","state":"WA","zip":"98027","telephone":"(425) 313-9600","promotions":["Receive the second adult entrée of equal or lesser value in the party (party meaning 2 or more people) complimentary.","20% off pizza if less than 2 non-pizza entrÃ©es are ordered","10% savings on banquets booked","18% gratuity automatically added","Not valid on daily lunch/dinner specials."]},{"name":"Amante Pizza & Pasta","address":"12319 Roosevelt Way NE","city":"Seattle","state":"WA","zip":"98125","telephone":"(206) 362-6666","promotions":["Receive the second adult entrée of equal or lesser value in the party (party meaning 2 or more people) complimentary.","20% off pizza if less than 2 non-pizza entrÃ©es are ordered","10% savings on banquets booked","18% gratuity automatically added","Not valid on daily lunch/dinner specials"]},{"name":"Americana Bistro","address":"2300 Evergreen Park Dr.","city":"Olympia","state":"WA","zip":"98502","telephone":"(360) 943-4000","promotions":["Receive the second adult entrée of equal or lesser value in the party (party meaning 2 or more people) complimentary.","20% off total bill when dining alone","20% off on all 'To Go' orders"]},{"name":"Amys On The Bay Restaurant & Bar","address":"100 Harrison St","city":"Port Orchard","state":"WA","zip":"98366","telephone":"(360) 876-1445","promotions":["Receive the second adult entrée of equal or lesser value in the party (party meaning 2 or more people) complimentary.","18% gratuity automatically added"]},{"name":"Andiamo","address":"938 110th Ave. NE","city":"Bellevue","state":"WA","zip":"98004","telephone":"(425) 452-9602","promotions":["Receive the second adult entrée of equal or lesser value in the party (party meaning 2 or more people) complimentary.","18% gratuity automatically added"]},{"name":"Aqua Terra","address":"3201 S 176th St.","city":"Seattle","state":"WA","zip":"98188","telephone":"(206) 241-2000","promotions":["Receive the second adult entrée of equal or lesser value in the party (party meaning 2 or more people) complimentary."]},{"name":"Arnies in Edmonds","address":"300 Admiral Way","city":"Edmonds","state":"WA","zip":"98020","telephone":"(425) 771-5688","promotions":["Receive the second adult entrée of equal or lesser value in the party (party meaning 2 or more people) complimentary.","75% off 2nd brunch"]},{"name":"Arnies in Mukilteo","address":"714 2nd St.","city":"Mukilteo","state":"WA","zip":"98275","telephone":"(425) 355-2181","promotions":["Receive the second adult entrée of equal or lesser value in the party (party meaning 2 or more people) complimentary.","75% off 2nd brunch"]},{"name":"Asian 1","address":"145 Cascade Place","city":"Burlington","state":"WA","zip":"98233","telephone":"(360) 707-2422","promotions":["20% off total guest check(2 - 6 adults)","Dine-in only"]},{"name":"Asian 1","address":"4285 Meridian St.","city":"Bellingham","state":"WA","zip":"98226","telephone":"(360) 752-2422","promotions":["20% off total guest check(2 - 6 adults)","Dine-in only"]},{"name":"Basils Kitchen","address":"300 112th Ave. SE","city":"Bellevue","state":"WA","zip":"98004","telephone":"(425) 452-4848","promotions":["Receive the second adult entrée of equal or lesser value in the party (party meaning 2 or more people) complimentary.","20% off total bill when dining alone"]},{"name":"Basils Kitchen & Lounge","address":"15920 W Valley Hwy.","city":"Tukwila","state":"WA","zip":"98501","telephone":"(425) 227-9406","promotions":["Receive the second adult entrée of equal or lesser value in the party (party meaning 2 or more people) complimentary.","20% off total bill when dining alone"]},{"name":"Beach Caf","address":"1170 Carillon Pt.","city":"Kirkland","state":"WA","zip":"98033","telephone":"(425) 889-0303","promotions":["Receive the second adult entrée of equal or lesser value in the party (party meaning 2 or more people) complimentary.","18% gratuity automatically added","Max use 2 cards per party"]},{"name":"Ben Dews Clubhouse Grill","address":"6501 6th Ave.","city":"Tacoma","state":"WA","zip":"98406","telephone":"(253) 564-4442","promotions":["Receive the second adult entrée of equal or lesser value in the party (party meaning 2 or more people) complimentary."]},{"name":"Benihana","address":"1200 Fifth Ave.","city":"Seattle","state":"WA","zip":"98101","telephone":"(206) 682-4686","promotions":["Lunch for Two $17 orDinner for Two $40 1Two sushi lunch buffets $25 2","1 Create your own lunch/dinner by selecting two of your Benihana favorites.2 Sushi buffets valid only in the sushi lounge."]},{"name":"Big E Ale House and Brewery","address":"Suite A","city":"Lynnwood","state":"WA","zip":"98036","telephone":"(425) 672-7051","promotions":["Receive the second adult entrée of equal or lesser value in the party (party meaning 2 or more people) complimentary.","20% off total bill when dining alone"]},{"name":"bin on the lake","address":"1270 Carillon Pt.","city":"Kirkland","state":"WA","zip":"98033","telephone":"(425) 803-5595","promotions":["Receive the second adult entrée of equal or lesser value in the party (party meaning 2 or more people) complimentary.","18% gratuity automatically added","Max use 2 cards per party"]},{"name":"Bistro Satsuma","address":"5315 Pt Fosdick Dr NW","city":"Gig Harbor","state":"WA","zip":"98335","telephone":"(253) 858-5151","promotions":["20% off total guest check(2 - 6 adults)","18% gratuity automatically added"]},{"name":"Bite Restaurant & Bar","address":"1320 Broadway Plz.","city":"Tacoma","state":"WA","zip":"98402","telephone":"(253) 591-4151","promotions":["Receive the second adult entrée of equal or lesser value in the party (party meaning 2 or more people) complimentary."]},{"name":"BOKA Restaurant & Bar","address":"1010 1st Ave.","city":"Seattle","state":"WA","zip":"98104","telephone":"(206) 357-9000","promotions":["Receive the second adult entrée of equal or lesser value in the party (party meaning 2 or more people) complimentary."]},{"name":"Boxleys","address":"101 W North Bend Way","city":"North Bend","state":"WA","zip":"98045","telephone":"(425) 292-9307","promotions":["Receive the second adult entrée of equal or lesser value in the party (party meaning 2 or more people) complimentary.","20% off total bill when dining alone","20% off on all 'To Go' orders","10% savings on banquets booked"]},{"name":"Bremerton Bar & Grill","address":"190 Pacific Ave.","city":"Bremerton","state":"WA","zip":"98337","telephone":"(360) 627-8081","promotions":["Receive the second adult entrée of equal or lesser value in the party (party meaning 2 or more people) complimentary."]},{"name":"Brix 25 Restaurant","address":"7707 Pioneer Way","city":"Gig Harbor","state":"WA","zip":"98335","telephone":"(253) 858-6626","promotions":["Receive the second adult entrée of equal or lesser value in the party (party meaning 2 or more people) complimentary."]},{"name":"Brunello Ristorante Italiano","address":"7708 Center Blvd SE","city":"Snoqualmie","state":"WA","zip":"98065","telephone":"(425) 888-6800","promotions":["Receive the second adult entrée of equal or lesser value in the party (party meaning 2 or more people) complimentary.","20% off on all 'To Go' orders"]},{"name":"Bucks American Caf","address":"2901 Hewitt Ave.","city":"Everett","state":"WA","zip":"98201","telephone":"(425) 258-1351","promotions":["Receive the second adult entrée of equal or lesser value in the party (party meaning 2 or more people) complimentary."]},{"name":"Budapest Bistro","address":"12926 Mukilteo Spdwy.","city":"Lynnwood","state":"WA","zip":"98037","telephone":"(425) 513-9846","promotions":["20% off total guest check(2 - 6 adults)"]},{"name":"Cabbage Patch","address":"111 Ave. A","city":"Snohomish","state":"WA","zip":"98290","telephone":"(360) 568-9091","promotions":["Receive the second adult entrée of equal or lesser value in the party (party meaning 2 or more people) complimentary.","20% off total bill when dining alone","10% savings on banquets booked"]},{"name":"Cafe Bengodi","address":"700 1st Ave.","city":"Seattle","state":"WA","zip":"98104","telephone":"(206) 381-0705","promotions":["Receive the second adult entrée of equal or lesser value in the party (party meaning 2 or more people) complimentary.","10% savings on banquets booked"]},{"name":"Cafe De Paris","address":"109 Main St.","city":"Edmonds","state":"WA","zip":"98020","telephone":"(425) 771-2350","promotions":["Receive the second adult entrée of equal or lesser value in the party (party meaning 2 or more people) complimentary.","Max $13.95/$20.95 savings on lunch/dinner specials."]},{"name":"Caf Parco","address":"1807 42nd Ave E","city":"Seattle","state":"WA","zip":"98112","telephone":"(206) 328-4757","promotions":["Receive the second adult entrée of equal or lesser value in the party (party meaning 2 or more people) complimentary."]},{"name":"Calabria Ristorante Italiano","address":"3922 148th St SE","city":"Mill Creek","state":"WA","zip":"98012","telephone":"(425) 379-7010","promotions":["Receive the second adult entrée of equal or lesser value in the party (party meaning 2 or more people) complimentary.","$9 savings on 3 course menu","Not valid on daily specials"]},{"name":"Cals Classic American","address":"504 Ramsay Way","city":"Kent","state":"WA","zip":"98032","telephone":"(253) 234-1913","promotions":["Receive the second adult entrée of equal or lesser value in the party (party meaning 2 or more people) complimentary.","18% gratuity automatically added"]},{"name":"Canyons Restaurant","address":"15740 Redmond Way","city":"Redmond","state":"WA","zip":"98052","telephone":"(425) 556-1390","promotions":["Receive the second adult entrée of equal or lesser value in the party (party meaning 2 or more people) complimentary.","20% off total bill when dining alone","20% off on all 'To Go' orders","10% savings on banquets booked","18% gratuity automatically added"]},{"name":"Canyons Restaurant","address":"22010 17th Ave. SE","city":"Bothell","state":"WA","zip":"98021","telephone":"(425) 485-3288","promotions":["Receive the second adult entrée of equal or lesser value in the party (party meaning 2 or more people) complimentary.","20% off total bill when dining alone","20% off on all 'To Go' orders","10% savings on banquets booked","18% gratuity automatically added"]},{"name":"Cellars Restaurant & Lounge","address":"2132 First Ave.","city":"Seattle","state":"WA","zip":"98121","telephone":"(206) 448-8757","promotions":["Receive the second adult entrée of equal or lesser value in the party (party meaning 2 or more people) complimentary.","20% off total bill when dining alone","10% savings on banquets booked"]},{"name":"Chanterelle","address":"316 Main St","city":"Edmonds","state":"WA","zip":"98020","telephone":"(425) 774-0650","promotions":["Receive the second adult entrée of equal or lesser value in the party (party meaning 2 or more people) complimentary.","Not valid for Breakfast, Early Bird special or Three Course Dinners"]},{"name":"Chihuahua Family Mexican","address":"5694 Third Ave","city":"Ferndale","state":"WA","zip":"98248","telephone":"(360) 384-5820","promotions":["Receive the second adult entrée of equal or lesser value in the party (party meaning 2 or more people) complimentary."]},{"name":"China Harbor","address":"2040 Westlake Ave. N","city":"Seattle","state":"WA","zip":"98109","telephone":"(206) 286-1688","promotions":["Receive the second adult entrée of equal or lesser value in the party (party meaning 2 or more people) complimentary.","20% off total bill when dining alone","20% off on all 'To Go' orders","Not valid on Lunch Specials"]},{"name":"Chlo Bistrot","address":"3515 NE 45th St","city":"Seattle","state":"WA","zip":"98105","telephone":"(206) 257-0286","promotions":["Receive the second adult entrée of equal or lesser value in the party (party meaning 2 or more people) complimentary.","Not valid on Three Course Dinner Special or 50% Wine Night"]},{"name":"CJs Beach House","address":"7878 Birch Bay Rd","city":"Blaine","state":"WA","zip":"98230","telephone":"(360) 746-8775","promotions":["Receive the second adult entrée of equal or lesser value in the party (party meaning 2 or more people) complimentary.","18% gratuity automatically added"]},{"name":"Coho Caf","address":"Ste A","city":"Issaquah","state":"WA","zip":"98029","telephone":"(425) 391-4040","promotions":["Receive the second adult entrée of equal or lesser value in the party (party meaning 2 or more people) complimentary.","Not valid on 1/2 price Happy Hour Specials"]},{"name":"Coho Caf","address":"8976 161st Ave. NE","city":"Redmond","state":"WA","zip":"98052","telephone":"(425) 885-2646","promotions":["Receive the second adult entrée of equal or lesser value in the party (party meaning 2 or more people) complimentary.","Not valid on 1/2 price Happy Hour Specials"]},{"name":"Collections Caf","address":"305 Harrison St","city":"Seattle","state":"WA","zip":"98109","telephone":"(206) 753-4935","promotions":["Receive the second adult entrée of equal or lesser value in the party (party meaning 2 or more people) complimentary.","Special offer: $15 savings when 2 pre fixe Brunch menu items ordered","20% off total bill when dining alone"]},{"name":"Copper Falls Restaurant and Bar","address":"29630 Green River Rd. SE","city":"Auburn","state":"WA","zip":"98092","telephone":"(253) 876-1957","promotions":["Receive the second adult entrée of equal or lesser value in the party (party meaning 2 or more people) complimentary.","18% gratuity automatically added"]},{"name":"Cosmos Ristorante","address":"1821 SE Lund Ave.","city":"Port Orchard","state":"WA","zip":"98366","telephone":"(360) 895-3138","promotions":["Receive the second adult entrée of equal or lesser value in the party (party meaning 2 or more people) complimentary.","18% gratuity automatically added","Dine-in only"]},{"name":"Cuoco","address":"310 Terry Ave N","city":"Seattle","state":"WA","zip":"98109","telephone":"(206) 971-0710","promotions":["Receive the second adult entrée of equal or lesser value in the party (party meaning 2 or more people) complimentary.","18% gratuity automatically added"]},{"name":"Cypress Lounge & Wine Bar","address":"600 Bellevue Way NE","city":"Bellevue","state":"WA","zip":"98004","telephone":"(425) 638-1000","promotions":["20% off total guest check(2 - 6 adults)"]},{"name":"Danube Bistro","address":"Suite B","city":"Bellevue","state":"WA","zip":"98004","telephone":"(425) 452-8722","promotions":["Receive the second adult entrée of equal or lesser value in the party (party meaning 2 or more people) complimentary.","20% off total bill when dining alone","20% off on all 'To Go' orders","10% savings on banquets booked","18% gratuity automatically added"]},{"name":"Demetris Woodstone Taverna","address":"101 Main St.","city":"Edmonds","state":"WA","zip":"98020","telephone":"(425) 744-9999","promotions":["20% off total guest check(2 - 6 adults)","20% off total bill when dining alone","10% savings on banquets booked"]},{"name":"Domani Pizzeria and Restaurant","address":"1515 Queen Ann Ave N","city":"Seattle","state":"WA","zip":"98109","telephone":"(206) 812-2222","promotions":["Receive the second adult entrée of equal or lesser value in the party (party meaning 2 or more people) complimentary.","20% off pizza if less than 2 non-pizza entrÃ©es are ordered","20% off total bill when dining alone","Not valid on lunch specials"]},{"name":"Dragonfish Asian Caf","address":"722 Pine St.","city":"Seattle","state":"WA","zip":"98101","telephone":"(206) 467-7777","promotions":["Receive the second adult entrée of equal or lesser value in the party (party meaning 2 or more people) complimentary.","20% off total bill when dining alone","20% off on all 'To Go' orders","10% savings on banquets booked"]},{"name":"Eastlake Bar and Grill","address":"2947 Eastlake Ave. E","city":"Seattle","state":"WA","zip":"98102","telephone":"(206) 957-7777","promotions":["Receive the second adult entrée of equal or lesser value in the party (party meaning 2 or more people) complimentary.","10% savings on banquets booked"]},{"name":"Eastside Bar & Grill","address":"625 116th Ave. NE","city":"Bellevue","state":"WA","zip":"98004","telephone":"(425) 455-9444","promotions":["Receive the second adult entrée of equal or lesser value in the party (party meaning 2 or more people) complimentary.","10% savings on banquets booked"]},{"name":"Edina Sushi","address":"Suite A","city":"Lynnwood","state":"WA","zip":"98036","telephone":"(425) 776-8068","promotions":["20% off total guest check(2 - 6 adults)","20% off total bill when dining alone","20% off on all 'To Go' orders"]},{"name":"Epulo Bistro","address":"526 Main St.","city":"Edmonds","state":"WA","zip":"98020","telephone":"(425) 678-8680","promotions":["Receive the second adult entrée of equal or lesser value in the party (party meaning 2 or more people) complimentary.","18% gratuity automatically added","Not valid on Tuesday Tasting Menu"]},{"name":"Ettas Seafood","address":"2020 Western Ave.","city":"Seattle","state":"WA","zip":"98121","telephone":"(206) 443-6000","promotions":["Receive the second adult entrée of equal or lesser value in the party (party meaning 2 or more people) complimentary.","18% gratuity automatically added","Valid at this Tom Douglas restaurant only"]},{"name":"Europa Bistro","address":"2515 N Proctor St.","city":"Tacoma","state":"WA","zip":"98406","telephone":"(253) 761-5660","promotions":["Receive the second adult entrée of equal or lesser value in the party (party meaning 2 or more people) complimentary."]},{"name":"F.X. McRorys","address":"Suite 602","city":"Seattle","state":"WA","zip":"98104","telephone":"(206) 623-4800","promotions":["Receive the second adult entrée of equal or lesser value in the party (party meaning 2 or more people) complimentary."]},{"name":"FireCreek Grill @ Druids Glen","address":"29925 207th Ave. SE","city":"Covington","state":"WA","zip":"98042","telephone":"(253) 638-1200","promotions":["Receive the second adult entrée of equal or lesser value in the party (party meaning 2 or more people) complimentary.","20% off total bill when dining alone"]},{"name":"Firenze Ristorante","address":"15600 NE 8th St","city":"Bellevue","state":"WA","zip":"98008","telephone":"(425) 957-1077","promotions":["Receive the second adult entrée of equal or lesser value in the party (party meaning 2 or more people) complimentary.","18% gratuity automatically added"]},{"name":"Fireside Martini and Wine Bar","address":"416 W Bakerview Rd.","city":"Bellingham","state":"WA","zip":"98226","telephone":"(360) 738-1000","promotions":["20% off total guest check(2 - 6 adults)","20% off total bill when dining alone"]},{"name":"Floyds Place","address":"521 1st Ave.","city":"Seattle","state":"WA","zip":"98109","telephone":"(206) 284-3542","promotions":["Receive the second adult entrée of equal or lesser value in the party (party meaning 2 or more people) complimentary."]},{"name":"Foleys on the Green","address":"7108 Lakewood Dr W","city":"Tacoma","state":"WA","zip":"98467","telephone":"(253) 473-3033","promotions":["Receive the second adult entrée of equal or lesser value in the party (party meaning 2 or more people) complimentary.","20% off total bill when dining alone"]},{"name":"Forecasters Pub","address":"14300 NE 145th St.","city":"Woodinville","state":"WA","zip":"98072","telephone":"(425) 483-3232","promotions":["Receive the second adult entrée of equal or lesser value in the party (party meaning 2 or more people) complimentary."]},{"name":"Fujiyama Japanese Steakhouse","address":"2930 Capital Mall Dr NW","city":"Olympia","state":"WA","zip":"98502","telephone":"(360) 352-9888","promotions":["Lunch Hibachi: $4.50 off 2nd HibachiDinner Hibachi: $10 off 2nd Hibachi","18% gratuity automatically added","Dine-in onlyNot valid on Chef's Special for Two"]},{"name":"Fujiyama Japanese Steakhouse","address":"9989 Silverdale Way","city":"Silverdale","state":"WA","zip":"98383","telephone":"(360) 592-5888","promotions":["Lunch Hibachi: $4.50 off 2nd HibachiDinner Hibachi: $10 off 2nd Hibachi","18% gratuity automatically added","Dine-in onlyNot valid on Chef's Special for Two"]},{"name":"Fumaca Brazilian Steakhouse","address":"101 Denny Way","city":"Seattle","state":"WA","zip":"98109","telephone":"(206) 453-4366","promotions":["20% off total guest check(2 - 6 adults)","20% off total bill when dining alone","Lunch Fri-Sun only"]},{"name":"Giuseppes Al Porto Ristorante Italiano","address":"21 Bellwether Way","city":"Bellingham","state":"WA","zip":"98225","telephone":"(360) 714-8412","promotions":["Receive the second adult entrée of equal or lesser value in the party (party meaning 2 or more people) complimentary."]},{"name":"Grazie","address":"23207 Bothell-Everett Hwy. SE","city":"Bothell","state":"WA","zip":"98021","telephone":"(425) 402-9600","promotions":["Receive the second adult entrée of equal or lesser value in the party (party meaning 2 or more people) complimentary."]},{"name":"Grazie Caffe Italiano","address":"16943 Southcenter Pkwy.","city":"Tukwila","state":"WA","zip":"98188","telephone":"(206) 575-1606","promotions":["Receive the second adult entrée of equal or lesser value in the party (party meaning 2 or more people) complimentary."]},{"name":"Grazie Caffe Italiano","address":"16943 Southcenter Pkwy","city":"Tukwila","state":"WA","zip":"98188","telephone":"(206) 575-1606","promotions":["Receive the second adult entree of equal or lesser value in the party (party meaning 2 or more people) complimentary.  "]},{"name":"Green.House Restaurant","address":"4793 Point Fosdick Dr. NW","city":"Gig Harbor","state":"WA","zip":"98335","telephone":"(253) 514-6482","promotions":["Receive the second adult entrée of equal or lesser value in the party (party meaning 2 or more people) complimentary."]},{"name":"Greenlake Bar & Grill","address":"7200 E Greenlake Dr N","city":"Seattle","state":"WA","zip":"98115","telephone":"(206) 729-6179","promotions":["Receive the second adult entrée of equal or lesser value in the party (party meaning 2 or more people) complimentary.","10% savings on banquets booked"]},{"name":"HG Bistro","address":"1618 E Main Ave.","city":"Puyallup","state":"WA","zip":"98372","telephone":"(253) 845-5747","promotions":["Receive the second adult entrée of equal or lesser value in the party (party meaning 2 or more people) complimentary.","Not valid on bar menu & daily specials"]},{"name":"Hook & Plow","address":"2100 Alaskan Way","city":"Seattle","state":"WA","zip":"98121","telephone":"(206) 256-1040","promotions":["Receive the second adult entrée of equal or lesser value in the party (party meaning 2 or more people) complimentary."]},{"name":"icon Grill","address":"1933 5th Ave.","city":"Seattle","state":"WA","zip":"98101","telephone":"(206) 441-6330","promotions":["Receive the second adult entrée of equal or lesser value in the party (party meaning 2 or more people) complimentary.","20% off total bill when dining alone"]},{"name":"Il Bistro","address":"93 Pike St.","city":"Seattle","state":"WA","zip":"98101","telephone":"(206) 682-3049","promotions":["Receive the second adult entrée of equal or lesser value in the party (party meaning 2 or more people) complimentary."]},{"name":"Indigo Kitchen & Alehouse","address":"2902 164th St SW","city":"Lynnwood","state":"WA","zip":"98087","telephone":"(425) 741-8770","promotions":["Receive the second adult entrée of equal or lesser value in the party (party meaning 2 or more people) complimentary."]},{"name":"Jade Dragon","address":"17181 Redmond Way","city":"Redmond","state":"WA","zip":"98052","telephone":"(425) 883-1828","promotions":["20% off total guest check(2 - 6 adults)","10% savings on banquets booked"]},{"name":"Jewel of India","address":"4735 University Way NE","city":"Seattle","state":"WA","zip":"98105","telephone":"(206) 523-5275","promotions":["Receive the second adult entrée of equal or lesser value in the party (party meaning 2 or more people) complimentary.","20% off total bill when dining alone","20% off on all 'To Go' orders","10% savings on banquets booked"]},{"name":"Joeseppis Italian Ristorante","address":"2207 N Pearl St.","city":"Tacoma","state":"WA","zip":"98406","telephone":"(253) 761-5555","promotions":["Receive the second adult entrée of equal or lesser value in the party (party meaning 2 or more people) complimentary."]},{"name":"Johnnys at Fife","address":"5211 20th St. E","city":"Fife","state":"WA","zip":"98421","telephone":"(253) 922-6686","promotions":["Receive the second adult entrée of equal or lesser value in the party (party meaning 2 or more people) complimentary."]},{"name":"Johnnys Dock","address":"1900 E D St.","city":"Tacoma","state":"WA","zip":"98421","telephone":"(253) 627-3186","promotions":["Receive the second adult entrée of equal or lesser value in the party (party meaning 2 or more people) complimentary.","20% off total bill when dining alone"]},{"name":"JUNO","address":"700 3rd Ave.","city":"Seattle","state":"WA","zip":"98104","telephone":"(206) 631-8080","promotions":["Receive the second adult entrée of equal or lesser value in the party (party meaning 2 or more people) complimentary."]},{"name":"Kaf Neo","address":"15130 Main St. Ste 100","city":"Mill Creek","state":"WA","zip":"98012","telephone":"(425) 357-0512","promotions":["20% off total guest check(2 - 6 adults)","20% off total bill when dining alone","10% savings on banquets booked","18% gratuity automatically added","This location only"]},{"name":"Kayak Bar and Grill","address":"19803 1st Ave. S","city":"Normandy Park","state":"WA","zip":"98148","telephone":"(206) 429-3145","promotions":["Receive the second adult entrée of equal or lesser value in the party (party meaning 2 or more people) complimentary."]},{"name":"Kuru Kuru Sushi","address":"11 Bellwether Way","city":"Bellingham","state":"WA","zip":"98225","telephone":"(360) 392-8224","promotions":["20% off total guest check(2 - 6 adults)","20% off total bill when dining alone"]},{"name":"Kyoto Japanese Steakhouse","address":"115 N Samish Way","city":"Bellingham","state":"WA","zip":"98225","telephone":"(360) 756-0058","promotions":["20% off total guest check except when ordering Hibachi (2 - 6 adults)","20% off total bill when dining alone","Hibachi savings $15 off 2 dinner/$5 off 2 lunches"]},{"name":"La Conner Seafood & Prime","address":"614 S 1st St","city":"La Conner","state":"WA","zip":"98257","telephone":"(360) 466-4014","promotions":["Receive the second adult entrée of equal or lesser value in the party (party meaning 2 or more people) complimentary.","18% gratuity automatically added"]},{"name":"La Galleria","address":"546 5th Ave S","city":"Edmonds","state":"WA","zip":"98020","telephone":"(425) 771-7950","promotions":["Receive the second adult entrée of equal or lesser value in the party (party meaning 2 or more people) complimentary.","18% gratuity automatically added"]},{"name":"La Isla  Redmond","address":"16505 Redmond Way","city":"Redmond","state":"WA","zip":"98052","telephone":"(425) 298-0374","promotions":["Receive the second adult entrée of equal or lesser value in the party (party meaning 2 or more people) complimentary."]},{"name":"La Isla  Seattle","address":"2320 NW Market St","city":"Seattle","state":"WA","zip":"98107","telephone":"(206) 789-0516","promotions":["Receive the second adult entrée of equal or lesser value in the party (party meaning 2 or more people) complimentary."]},{"name":"La Palma Family Mexican Restaurant","address":"5701 Lakewood Town Ctr. Blvd. SW","city":"Lakewood","state":"WA","zip":"98499","telephone":"(253) 582-8349","promotions":["Receive the second adult entrée of equal or lesser value in the party (party meaning 2 or more people) complimentary."]},{"name":"La Palma Mexican Restaurant","address":"3456 15th Ave. W","city":"Seattle","state":"WA","zip":"98119","telephone":"(206) 284-1001","promotions":["Receive the second adult entrée of equal or lesser value in the party (party meaning 2 or more people) complimentary."]},{"name":"Lake Forest Bar & Grill","address":"17535 Ballinger Way NE","city":"Lake Forest Park","state":"WA","zip":"98155","telephone":"(206) 364-1261","promotions":["Receive the second adult entrée of equal or lesser value in the party (party meaning 2 or more people) complimentary.","10% savings on banquets booked"]},{"name":"Lanna Thai","address":"7825 Evergreen Way Ste. B","city":"Everett","state":"WA","zip":"98203","telephone":"(425) 438-3888","promotions":["Receive the second adult entrée of equal or lesser value in the party (party meaning 2 or more people) complimentary.","20% off total bill when dining alone","20% off on all 'To Go' orders","Not valid on Lunch Specials"]},{"name":"Library Bistro and Bookstore Bar","address":"92 Madison St.","city":"Seattle","state":"WA","zip":"98104","telephone":"(206) 624-3646","promotions":["Receive the second adult entrée of equal or lesser value in the party (party meaning 2 or more people) complimentary.","Dinner is served in the Library Bistro Bar","20% off total bill when dining alone","20% off on all 'To Go' orders"]},{"name":"Lighthouse Bar & Grill","address":"One Bellwether Way","city":"Bellingham","state":"WA","zip":"98225","telephone":"(360) 392-3200","promotions":["Receive the second adult entrée of equal or lesser value in the party (party meaning 2 or more people) complimentary."]},{"name":"Lombardis Italian","address":"19409 Bothell Everett Hwy","city":"Bothell","state":"WA","zip":"98012","telephone":"(425) 892-2931","promotions":["Receive the second adult entrée of equal or lesser value in the party (party meaning 2 or more people) complimentary.","Italian Supper Club $8.50 off 2nd Prixe Fixe when 2 entrÃ©e are not ordered","18% gratuity automatically added"]},{"name":"Lombardis Italian","address":"1620 W Marine View Dr","city":"Everett","state":"WA","zip":"98201","telephone":"(425) 252-1886","promotions":["Receive the second adult entrée of equal or lesser value in the party (party meaning 2 or more people) complimentary.","Italian Supper Club $8.50 off 2nd Prixe Fixe when 2 entrÃ©e are not ordered","18% gratuity automatically added"]},{"name":"Lunchbox Laboratory","address":"1253 Thomas St","city":"Seattle","state":"WA","zip":"98109","telephone":"(206) 621-1090","promotions":["Receive the second adult entrée of equal or lesser value in the party (party meaning 2 or more people) complimentary."]},{"name":"Lunchbox Laboratory","address":"4901Point Fosdick Dr NW","city":"Gig Harbor","state":"WA","zip":"98335","telephone":"(253) 432-4061","promotions":["Receive the second adult entrée of equal or lesser value in the party (party meaning 2 or more people) complimentary."]},{"name":"Lunchbox Laboratory","address":"989 112th Ave NE","city":"Bellevue","state":"WA","zip":"98004","telephone":"(425) 505-2676","promotions":["Receive the second adult entrée of equal or lesser value in the party (party meaning 2 or more people) complimentary."]},{"name":"Marcos Restaurant & Lounge","address":"Suite A","city":"Lynnwood","state":"WA","zip":"98037","telephone":"(425) 743-6627","promotions":["Receive the second adult entrée of equal or lesser value in the party (party meaning 2 or more people) complimentary."]},{"name":"Margaux","address":"401 Lenora","city":"Seattle","state":"WA","zip":"98121","telephone":"(206) 777-1990","promotions":["Receive the second adult entrée of equal or lesser value in the party (party meaning 2 or more people) complimentary.","20% off total bill when dining alone"]},{"name":"Marianna Ristorante","address":"310 Wells Ave S","city":"Renton","state":"WA","zip":"98057","telephone":"(425) 271-7042","promotions":["Receive the second adult entrée of equal or lesser value in the party (party meaning 2 or more people) complimentary.","20% off pizza if less than 2 non-pizza entrÃ©es are ordered","18% gratuity automatically added"]},{"name":"Marrakesh Authentic Moroccan Cuisine","address":"2334 Second Ave","city":"Seattle","state":"WA","zip":"98121","telephone":"(206) 956-0500","promotions":["$10.00 off 2nd 5-course pre fixe","Max 2 cards"]},{"name":"Masala of India Cuisine","address":"507 Northgate Way","city":"Seattle","state":"WA","zip":"98125","telephone":"(206) 417-1118","promotions":["Receive the second adult entrée of equal or lesser value in the party (party meaning 2 or more people) complimentary.","2nd platter, $6 off; excludes buffet","20% off total bill when dining alone","10% savings on banquets booked","18% gratuity automatically added"]},{"name":"Matador Ballard","address":"2221 NW Market St.","city":"Seattle","state":"WA","zip":"98107","telephone":"(206) 297-2855","promotions":["Receive the second adult entrée of equal or lesser value in the party (party meaning 2 or more people) complimentary."]},{"name":"Matador Redmond","address":"7824 Leary Way NE","city":"Redmond","state":"WA","zip":"98052","telephone":"(425) 883-2855","promotions":["Receive the second adult entrée of equal or lesser value in the party (party meaning 2 or more people) complimentary."]},{"name":"Matador Tacoma","address":"721 Pacific Ave.","city":"Tacoma","state":"WA","zip":"98402","telephone":"(253) 627-7100","promotions":["Receive the second adult entrée of equal or lesser value in the party (party meaning 2 or more people) complimentary."]},{"name":"Matador West Seattle","address":"4546 California Ave SW","city":"Seattle","state":"WA","zip":"98116","telephone":"(206) 932-9988","promotions":["Receive the second adult entrée of equal or lesser value in the party (party meaning 2 or more people) complimentary."]},{"name":"Mayan Family Mexican Restaurant","address":"2120 Marvin Rd. NE","city":"Lacey","state":"WA","zip":"98516","telephone":"(360) 456-8222","promotions":["Receive the second adult entrée of equal or lesser value in the party (party meaning 2 or more people) complimentary."]},{"name":"Mayan Family Mexican Restaurant","address":"4520 Pacific Ave. SE","city":"Lacey","state":"WA","zip":"98503","telephone":"(360) 491-8244","promotions":["Receive the second adult entrée of equal or lesser value in the party (party meaning 2 or more people) complimentary."]},{"name":"Mayan Family Mexican Restaurant","address":"4820 Yelm Hwy. SE","city":"Lacey","state":"WA","zip":"98516","telephone":"(360) 456-0818","promotions":["Receive the second adult entrée of equal or lesser value in the party (party meaning 2 or more people) complimentary."]},{"name":"McCarthys Bar & Grille","address":"20610 44th Ave. W","city":"Lynnwood","state":"WA","zip":"98036","telephone":"(425) 582-4251","promotions":["Receive the second adult entrée of equal or lesser value in the party (party meaning 2 or more people) complimentary."]},{"name":"Melrose Grill","address":"819 Houser Way S","city":"Renton","state":"WA","zip":"98057","telephone":"(425) 254-0759","promotions":["Receive the second adult entrée of equal or lesser value in the party (party meaning 2 or more people) complimentary."]},{"name":"Mick Kellys Irish Pub","address":"2019 W Meeker St.","city":"Kent","state":"WA","zip":"98031","telephone":"(253) 856-6425","promotions":["Receive the second adult entrée of equal or lesser value in the party (party meaning 2 or more people) complimentary.","20% off pizza if less than 2 non-pizza entrÃ©es are ordered","10% savings on banquets booked"]},{"name":"Mick Kellys Irish Pub","address":"435 SW 152nd St.","city":"Burien","state":"WA","zip":"98166","telephone":"(206) 246-2473","promotions":["Receive the second adult entrée of equal or lesser value in the party (party meaning 2 or more people) complimentary.","10% savings on banquets booked","18% gratuity automatically added"]},{"name":"Mondello","address":"2425 33rd Ave. W","city":"Seattle","state":"WA","zip":"98199","telephone":"(206) 352-8700","promotions":["Receive the second adult entrée of equal or lesser value in the party (party meaning 2 or more people) complimentary.","18% gratuity automatically added","Not valid on daily specials"]},{"name":"New Engs Restaurant","address":"25410 104th Ave. SE","city":"Kent","state":"WA","zip":"98051","telephone":"(253) 859-2100","promotions":["20% off total guest check(2 - 6 adults)","20% off total bill when dining alone","20% off on all 'To Go' orders","Not valid on Lunch or Dinner specials"]},{"name":"New York Pizza & Bar","address":"500 Mercer St","city":"Seattle","state":"WA","zip":"98109","telephone":"(206) 913-2565","promotions":["Receive the second adult entrée of equal or lesser value in the party (party meaning 2 or more people) complimentary.","20% off pizza if less than 2 non-pizza entrÃ©es are ordered","20% off total bill when dining alone"]},{"name":"New York Pizza & Bar","address":"8874 Bender Rd","city":"Lynden","state":"WA","zip":"98264","telephone":"(360) 318-0580","promotions":["Receive the second adult entrée of equal or lesser value in the party (party meaning 2 or more people) complimentary.","20% off pizza if less than 2 non-pizza entrÃ©es are ordered","20% off total bill when dining alone"]},{"name":"New York Pizza & Bar","address":"902 N State St","city":"Bellingham","state":"WA","zip":"98225","telephone":"(360) 733-3171","promotions":["Receive the second adult entrée of equal or lesser value in the party (party meaning 2 or more people) complimentary.","20% off pizza if less than 2 non-pizza entrÃ©es are ordered","20% off total bill when dining alone"]},{"name":"Nine O Bar & Grill","address":"14632 SE Eastgate Way","city":"Bellevue","state":"WA","zip":"98007","telephone":"(425) 214-9000","promotions":["Receive the second adult entrée of equal or lesser value in the party (party meaning 2 or more people) complimentary."]},{"name":"North City Bistro & Wine Shop","address":"1520 NE 177th St.","city":"Shoreline","state":"WA","zip":"98155","telephone":"(206) 365-4447","promotions":["Receive the second adult entrée of equal or lesser value in the party (party meaning 2 or more people) complimentary.","10% savings on banquets booked"]},{"name":"OAsian Kitchen","address":"800 5th Ave.","city":"Seattle","state":"WA","zip":"98104","telephone":"(206) 264-1789","promotions":["Receive the second adult entrée of equal or lesser value in the party (party meaning 2 or more people) complimentary."]},{"name":"Paddy Coynes Irish Pub","address":"1190 Thomas St.","city":"Seattle","state":"WA","zip":"98109","telephone":"(206) 405-1548","promotions":["Receive the second adult entrée of equal or lesser value in the party (party meaning 2 or more people) complimentary.","10% savings on banquets booked","Breakfast served Sat/Sun"]},{"name":"Paddy Coynes Irish Pub","address":"2801 Alaskan Way","city":"Seattle","state":"WA","zip":"98121","telephone":"(206) 737-8890","promotions":["Receive the second adult entrée of equal or lesser value in the party (party meaning 2 or more people) complimentary.","Breakfast weekends only"]},{"name":"Paddy Coynes Irish Pub","address":"Suite 100","city":"Bellevue","state":"WA","zip":"98004","telephone":"(425) 453-8080","promotions":["Receive the second adult entrée of equal or lesser value in the party (party meaning 2 or more people) complimentary.","Breakfast served Sat/Sun"]},{"name":"Pasta Freska Ristorante","address":"1515 Westlake Ave","city":"Seattle","state":"WA","zip":"98109","telephone":"(206) 283-1515","promotions":["$16 off 2nd Pre-Fixe item","10% savings on banquets booked","(no second entrÃ©e)"]},{"name":"Pegasus Pizza","address":"2770 Alki Ave. SW","city":"Seattle","state":"WA","zip":"98116","telephone":"(206) 932-4849","promotions":["Receive the second adult entrée of equal or lesser value in the party (party meaning 2 or more people) complimentary.","20% off pizza when 2 entrees not ordered","18% gratuity automatically added","Not valid on lunch specials menu"]},{"name":"Peppers Mexican Restaurant","address":"114 Cherry St. NE","city":"Olympia","state":"WA","zip":"98501","telephone":"(360) 943-1111","promotions":["Receive the second adult entrée of equal or lesser value in the party (party meaning 2 or more people) complimentary.","10% savings on banquets booked"]},{"name":"Pizzeria Guido","address":"15600 NE 8th St","city":"Bellevue","state":"WA","zip":"98008","telephone":"(425) 614-0007","promotions":["20% off total guest check(2 - 6 adults)","18% gratuity automatically added"]},{"name":"Pogacha","address":"120 NW Gilman","city":"Issaquah","state":"WA","zip":"98027","telephone":"(425) 392-5550","promotions":["Receive the second adult entrée of equal or lesser value in the party (party meaning 2 or more people) complimentary.","Excludes family style entrÃ©es."]},{"name":"Ponti Seafood Grill","address":"3014 3rd Ave. N","city":"Seattle","state":"WA","zip":"98109","telephone":"(206) 284-3000","promotions":["Receive the second adult entrée of equal or lesser value in the party (party meaning 2 or more people) complimentary."]},{"name":"Poppy","address":"622 Broadway E","city":"Seattle","state":"WA","zip":"98102","telephone":"(206) 324-1108","promotions":["$12 off 2nd Thali"]},{"name":"Ports of Call at La Quinta","address":"1425 E 27th St.","city":"Tacoma","state":"WA","zip":"98421","telephone":"(253) 272-6731","promotions":["Receive the second adult entrée of equal or lesser value in the party (party meaning 2 or more people) complimentary.","20% off total bill when dining alone"]},{"name":"Primo Grill","address":"Suite 102","city":"Tacoma","state":"WA","zip":"98405","telephone":"(253) 383-7000","promotions":["Receive the second adult entrée of equal or lesser value in the party (party meaning 2 or more people) complimentary."]},{"name":"Queen Margherita","address":"3111 W McGraw St.","city":"Seattle","state":"WA","zip":"98199","telephone":"(206) 548-4908","promotions":["20% off total guest check(2 - 6 adults)","10% savings on banquets booked"]},{"name":"Racha Noodle & Thai","address":"23 Mercer St.","city":"Seattle","state":"WA","zip":"98109","telephone":"(206) 281-8883","promotions":["Receive the second adult entrée of equal or lesser value in the party (party meaning 2 or more people) complimentary."]},{"name":"Racha Thai & Asian Kitchen","address":"1150 Southcenter Pkwy.","city":"Tukwila","state":"WA","zip":"98188","telephone":"(206) 768-8883","promotions":["Receive the second adult entrée of equal or lesser value in the party (party meaning 2 or more people) complimentary.","18% gratuity automatically added"]},{"name":"Racha Thai Cuisine","address":"13317 NE 175th St.","city":"Woodinville","state":"WA","zip":"98072","telephone":"(425) 481-8833","promotions":["Receive the second adult entrée of equal or lesser value in the party (party meaning 2 or more people) complimentary.","18% gratuity automatically added"]},{"name":"Rays Boathouse","address":"6049 Seaview Ave. NW","city":"Seattle","state":"WA","zip":"98107","telephone":"(206) 789-3770","promotions":["Receive the second adult entrée of equal or lesser value in the party (party meaning 2 or more people) complimentary.","$30 savings on 5-course Tasting Menu","18% gratuity automatically added"]},{"name":"Rays Cafe","address":"6049 Seaview Ave. NW","city":"Seattle","state":"WA","zip":"98107","telephone":"(206) 789-3770","promotions":["Receive the second adult entrée of equal or lesser value in the party (party meaning 2 or more people) complimentary.","18% gratuity automatically added"]},{"name":"Rays Caf","address":"6049 Seaview Ave. NW","city":"Seattle","state":"WA","zip":"98107","telephone":"(206) 789-3770","promotions":["Receive the second adult entree of equal or lesser value in the party (party meaning 2 or more people) complimentary.  "]},{"name":"Redmonds Bar & Grill","address":"7979 Leary Way NE","city":"Redmond","state":"WA","zip":"98052","telephone":"(425) 558-9800","promotions":["Receive the second adult entrée of equal or lesser value in the party (party meaning 2 or more people) complimentary.","18% gratuity automatically added"]},{"name":"Rikki Rikki","address":"442 Parkplace Ctr.","city":"Kirkland","state":"WA","zip":"98033","telephone":"(425) 828-0707","promotions":["20% off total guest check(2 - 6 adults)"]},{"name":"Royal Argosy Dining Cruises","address":"Pier 56","city":"Seattle","state":"WA","zip":"98101","telephone":"(206) 623-1445","promotions":["20% off Dining Cruise Experience","Themed Events Excluded"]},{"name":"Russells","address":"3305 Monte Villa Pkwy.","city":"Bothell","state":"WA","zip":"98021","telephone":"(425) 486-4072","promotions":["Receive the second adult entrée of equal or lesser value in the party (party meaning 2 or more people) complimentary.","10% off in-home catering","Dine-in only"]},{"name":"Saffron Grill","address":"2132 N Northgate Way","city":"Seattle","state":"WA","zip":"98133","telephone":"(206) 417-0707","promotions":["Receive the second adult entrée of equal or lesser value in the party (party meaning 2 or more people) complimentary.","20% off on all 'To Go' orders","10% savings on banquets booked"]},{"name":"SEAR","address":"7401 164th Ave. NE","city":"Redmond","state":"WA","zip":"98052","telephone":"(425) 864-1459","promotions":["Receive the second adult entrée of equal or lesser value in the party (party meaning 2 or more people) complimentary.","20% off total bill when dining alone"]},{"name":"Shawn ODonnells American Grill & Irish Pub","address":"122 128th St. SE","city":"Everett","state":"WA","zip":"98208","telephone":"(425) 338-5700","promotions":["Receive the second adult entrée of equal or lesser value in the party (party meaning 2 or more people) complimentary.","20% off total bill when dining alone","10% savings on banquets booked"]},{"name":"Ship Canal Grill","address":"3218 Eastlake Ave E","city":"Seattle","state":"WA","zip":"98102","telephone":"(206) 588-8885","promotions":["Receive the second adult entrée of equal or lesser value in the party (party meaning 2 or more people) complimentary.","20% off total bill when dining alone","10% savings on banquets booked"]},{"name":"Silver City Brewery","address":"2799 Myhre Rd","city":"Silverdale","state":"WA","zip":"98393","telephone":"(360) 698-5879","promotions":["Receive the second adult entrée of equal or lesser value in the party (party meaning 2 or more people) complimentary.","Not valid with Silver City Special Clubs"]},{"name":"Sip at the Wine Bar & Restaurant","address":"1084 NE Park Dr.","city":"Issaquah","state":"WA","zip":"98029","telephone":"(425) 369-1181","promotions":["Receive the second adult entrée of equal or lesser value in the party (party meaning 2 or more people) complimentary.","20% off total bill when dining alone"]},{"name":"SkyCity Restaurant at The Needle","address":"400 Broad St.","city":"Seattle","state":"WA","zip":"98109","telephone":"(800) 937-9582","promotions":["Receive the second adult entrée of equal or lesser value in the party (party meaning 2 or more people) complimentary.","$25 off 2nd Brunch"]},{"name":"Smash Wine Bar & Bistro","address":"1401 N 45th St","city":"Seattle","state":"WA","zip":"98103","telephone":"(206) 547-3232","promotions":["Receive the second adult entrée of equal or lesser value in the party (party meaning 2 or more people) complimentary."]},{"name":"Snoqualmie Brewery and Taproom","address":"8032 Falls Ave.","city":"Snoqualmie","state":"WA","zip":"98065","telephone":"(425) 831-2357","promotions":["Receive the second adult entrée of equal or lesser value in the party (party meaning 2 or more people) complimentary.","20% off total bill when dining alone","20% off on all 'To Go' orders"]},{"name":"Sorcis Italian Eatery","address":"1012 Ryan Ave","city":"Sumner","state":"WA","zip":"98498","telephone":"(253) 891-8400","promotions":["Receive the second adult entrée of equal or lesser value in the party (party meaning 2 or more people) complimentary.","20% off pizza if less than 2 non-pizza entrÃ©es are ordered"]},{"name":"Spencers for Steak & Chops","address":"17620 Pacific Hwy S","city":"Seattle","state":"WA","zip":"98188","telephone":"(206) 248-7153","promotions":["Receive the second adult entrée of equal or lesser value in the party (party meaning 2 or more people) complimentary."]},{"name":"Sullivans Steakhouse of WA","address":"621 Union St.","city":"Seattle","state":"WA","zip":"98101","telephone":"(206) 494-4442","promotions":["Receive the second adult entrée of equal or lesser value in the party (party meaning 2 or more people) complimentary.","$20 off 2nd \"The Sure Thing Prix-Fixe Menu\" if less than 2 entrÃ©es are ordered","Dine-in only. Seattle location only."]},{"name":"T.S. McHughs","address":"21 Mercer St.","city":"Seattle","state":"WA","zip":"98109","telephone":"(206) 282-1910","promotions":["Receive the second adult entrée of equal or lesser value in the party (party meaning 2 or more people) complimentary.","20% off total bill when dining alone"]},{"name":"Tap House Grill","address":"550 106th Ave. NE #101","city":"Bellevue","state":"WA","zip":"98004","telephone":"(425) 467-1730","promotions":["Receive the second adult entrée of equal or lesser value in the party (party meaning 2 or more people) complimentary.","20% off total bill when dining alone","10% savings on banquets booked"]},{"name":"Taste Restaurant","address":"1300 1st Ave.","city":"Seattle","state":"WA","zip":"98101","telephone":"(206) 903-5291","promotions":["Receive the second adult entrée of equal or lesser value in the party (party meaning 2 or more people) complimentary.","10% savings on banquets booked","Sun all day brunch only."]},{"name":"Teapot Vegetarian House","address":"15230 NE 24th St","city":"Redmond","state":"WA","zip":"98052","telephone":"(425) 373-1888","promotions":["20% off total guest check(2 - 6 adults)","18% gratuity automatically added"]},{"name":"Thai VP Cuisine","address":"15920 NE 8th St.","city":"Bellevue","state":"WA","zip":"","telephone":"(425) 502-7115","promotions":["20% off total guest check(2 - 6 adults)","Not valid on dine-alone"]},{"name":"The Clubhouse at McCormick Woods","address":"5155 McCormick Woods Dr. SW","city":"Port Orchard","state":"WA","zip":"98367","telephone":"(360) 895-0142","promotions":["Receive the second adult entrée of equal or lesser value in the party (party meaning 2 or more people) complimentary."]},{"name":"The Crab Cracker","address":"452 Central Way","city":"Kirkland","state":"WA","zip":"98033","telephone":"(425) 827-8700","promotions":["Receive the second adult entrée of equal or lesser value in the party (party meaning 2 or more people) complimentary.","20% off total bill when dining alone"]},{"name":"The Georgian","address":"411 University St.","city":"Seattle","state":"WA","zip":"98101","telephone":"(206) 621-7889","promotions":["Receive the second adult entrée of equal or lesser value in the party (party meaning 2 or more people) complimentary.","When ordering multiple course meals, least expensive a la carte will be compliments","20% off total bill when dining alone","Not valid with Afternoon Tea"]},{"name":"The Herbfarm Restaurant","address":"14590 NE 145th St.","city":"Woodinville","state":"WA","zip":"98072","telephone":"(425) 485-5300","promotions":["When ordering multiple course meals, $30 will be deducted from the bill.","20% off total bill when dining alone"]},{"name":"The Hunt Club","address":"900 Madison Ave.","city":"Seattle","state":"WA","zip":"98104","telephone":"(206) 343-6156","promotions":["Receive the second adult entrée of equal or lesser value in the party (party meaning 2 or more people) complimentary."]},{"name":"The MarketPlace Grille","address":"8825 N Harborview Dr.","city":"Gig Harbor","state":"WA","zip":"98332","telephone":"(253) 858-3487","promotions":["Receive the second adult entrée of equal or lesser value in the party (party meaning 2 or more people) complimentary.","20% off total bill when dining alone"]},{"name":"The Melting Pot","address":"14 Mercer St.","city":"Seattle","state":"WA","zip":"98109","telephone":"(206) 378-1208","promotions":["20% off total guest check(2 - 6 adults)"]},{"name":"The Melting Pot","address":"2121 Pacific Ave.","city":"Tacoma","state":"WA","zip":"98402","telephone":"(253) 535-3939","promotions":["20% off total guest check(2 - 6 adults)"]},{"name":"The Melting Pot","address":"302 108th Ave. NE","city":"Bellevue","state":"WA","zip":"98004","telephone":"(425) 646-2744","promotions":["20% off total guest check(2 - 6 adults)"]},{"name":"The Scotch and Vine","address":"22341 Marine View Dr S","city":"Des Moines","state":"WA","zip":"98198","telephone":"(206) 592-2139","promotions":["20% off total guest check(2 - 6 adults)","20% off total bill when dining alone"]},{"name":"Tin Lizzie","address":"600 Queen Anne Ave N","city":"Seattle","state":"WA","zip":"98109","telephone":"(206) 805-4422","promotions":["20% off total guest check(2 - 6 adults)","20% off total bill when dining alone"]},{"name":"Tokyo Steak House","address":"1404 S 320th St.","city":"Federal Way","state":"WA","zip":"98003","telephone":"(253) 839-4352","promotions":["Prix-Fixe: $6 off 2 lunches, $14 off 2 dinners20% off Sushi","20% off total bill when dining alone","Max 2 cards"]},{"name":"Tokyo Steak House","address":"909 112th Ave. NE","city":"Bellevue","state":"WA","zip":"98004","telephone":"(425) 449-8567","promotions":["Prix-Fixe: $6 off 2 lunches, $14 off 2 dinners20% off Sushi","20% off total bill when dining alone","Max 2 cards"]},{"name":"Twisted Kilt","address":"109 S Meridian","city":"Puyallup","state":"WA","zip":"98371","telephone":"(253) 604-4791","promotions":["Receive the second adult entrée of equal or lesser value in the party (party meaning 2 or more people) complimentary."]},{"name":"Uncle Sis Pizza","address":"7729 Center Blvd. SE","city":"Snoqualmie","state":"WA","zip":"98065","telephone":"(425) 396-7975","promotions":["20% off total guest check(2 - 6 adults)"]},{"name":"Urban Onion","address":"116 Legion Way","city":"Olympia","state":"WA","zip":"98501","telephone":"(360) 943-9242","promotions":["Receive the second adult entrée of equal or lesser value in the party (party meaning 2 or more people) complimentary.","20% off total bill when dining alone"]},{"name":"Village Wines","address":"14450 NE Woodinville-Redmond Rd","city":"Woodinville","state":"WA","zip":"98072","telephone":"(425) 485-3536","promotions":["Receive the second adult entrée of equal or lesser value in the party (party meaning 2 or more people) complimentary.","Not valid for retail wine purchase20% off pizza if less than 2 non-pizza entrÃ©es are ordered"]},{"name":"Washington Sips","address":"608 S First St","city":"La Conner","state":"WA","zip":"98257","telephone":"(360) 399-1037","promotions":["20% off total guest check(2 - 6 adults)"]},{"name":"Wild Wasabi","address":"19720 44th Ave W","city":"Lynnwood","state":"WA","zip":"98036","telephone":"(425) 776-8068","promotions":["20% off total guest check(2 - 6 adults)","Not valid during Happy Hour"]},{"name":"Wilde Rover","address":"111 Central Way","city":"Kirkland","state":"WA","zip":"98033","telephone":"(425) 822-8940","promotions":["Receive the second adult entrée of equal or lesser value in the party (party meaning 2 or more people) complimentary.","20% off total bill when dining alone"]},{"name":"Windmill Bistro","address":"16009 60th St E","city":"Sumner","state":"WA","zip":"98390","telephone":"(253) 826-7897","promotions":["Receive the second adult entrée of equal or lesser value in the party (party meaning 2 or more people) complimentary.","18% gratuity automatically added"]},{"name":"Woodman Lodge Steakhouse & Saloon","address":"38601 SE King St.","city":"Snoqualmie","state":"WA","zip":"98065","telephone":"(425) 888-4441","promotions":["Receive the second adult entrée of equal or lesser value in the party (party meaning 2 or more people) complimentary.","10% savings on banquets booked"]},{"name":"Ynot Sports Grill","address":"2015 Hewitt Ave","city":"Everett","state":"WA","zip":"98201","telephone":"(425) 610-4379","promotions":["Receive the second adult entrée of equal or lesser value in the party (party meaning 2 or more people) complimentary.","20% off total bill when dining alone"]}]